NORAD_CAT_ID,OBJECT_NAME,OBJECT_TYPE,EPOCH,MEAN_MOTION,ECCENTRICITY,INCLINATION,RA_OF_ASC_NODE,ARG_OF_PERICENTER,MEAN_ANOMALY,BSTAR,MEAN_MOTION_DOT,MEAN_MOTION_DDOT,TLE_LINE0,TLE_LINE1,TLE_LINE2,SEMIMAJOR_AXIS,PERIOD,APOGEE,PERIGEE,DECAYED
51993.0,STARLINK-3648,PAYLOAD,2023-04-27 02:32:28,15.08830947,0.000112,53.2174,61.9043,87.8696,272.2425,-4.2734e-05,-9.68e-06,0.0,0 STARLINK-3648,1 51993U 22025AP  23117.10588896 -.00000968  00000-0 -42734-4 0  9996,2 51993  53.2174  61.9043 0001120  87.8696 272.2425 15.08830947 64023,6917.908,95.438,540.548,538.998,0.0
51993.0,STARLINK-3648,PAYLOAD,2023-04-28 02:23:13,15.08850588,0.0001229,53.2178,57.4426,98.9529,261.1603,0.00035506,5.369e-05,0.0,0 STARLINK-3648,1 51993U 22025AP  23118.09946695  .00005369  00000-0  35506-3 0  9996,2 51993  53.2178  57.4426 0001229  98.9529 261.1603 15.08850588 64174,6917.848,95.437,540.563,538.863,0.0
51993.0,STARLINK-3648,PAYLOAD,2023-04-28 05:33:59,15.08853448,0.0001556,53.2181,56.8464,104.7982,255.3183,0.00038241,5.806e-05,0.0,0 STARLINK-3648,1 51993U 22025AP  23118.23194425  .00005806  00000-0  38241-3 0  9993,2 51993  53.2181  56.8464 0001556 104.7982 255.3183 15.08853448 63080,6917.839,95.437,540.781,538.628,0.0
51993.0,STARLINK-3648,PAYLOAD,2023-04-29 02:14:01,15.08850077,0.0001081,53.2183,52.9843,98.8238,261.2876,-5.0185e-05,-1.087e-05,0.0,0 STARLINK-3648,1 51993U 22025AP  23119.09307861 -.00001087  00000-0 -50185-4 0  9999,2 51993  53.2183  52.9843 0001081  98.8238 261.2876 15.08850077 64328,6917.85,95.437,540.462,538.967,0.0
51993.0,STARLINK-3648,PAYLOAD,2023-04-30 03:40:11,15.0885499,0.0001178,53.2191,48.2279,102.2219,257.8905,-0.00016385,-2.896e-05,0.0,0 STARLINK-3648,1 51993U 22025AP  23120.15291401 -.00002896  00000-0 -16385-3 0  9992,2 51993  53.2191  48.2279 0001178 102.2219 257.8905 15.08854990 64483,6917.835,95.437,540.514,538.885,0.0
51993.0,STARLINK-3648,PAYLOAD,2023-05-01 01:55:36,15.08836698,9.65e-05,53.2196,44.0661,97.1261,262.9841,3.7378e-05,3.07e-06,0.0,0 STARLINK-3648,1 51993U 22025AP  23121.08028030  .00000307  00000-0  37378-4 0  9990,2 51993  53.2196  44.0661 0000965  97.1261 262.9841 15.08836698 64626,6917.89,95.438,540.423,539.088,0.0
51993.0,STARLINK-3648,PAYLOAD,2023-05-02 00:11:00,15.08838325,0.0001094,53.2189,39.905,105.9593,254.152,2.1018e-05,4.7e-07,0.0,0 STARLINK-3648,1 51993U 22025AP  23122.00764317  .00000047  00000-0  21018-4 0  9993,2 51993  53.2189  39.9050 0001094 105.9593 254.1520 15.08838325 63651,6917.886,95.438,540.507,538.994,0.0
51993.0,STARLINK-3648,PAYLOAD,2023-05-02 19:15:37,15.08840278,0.0001008,53.2184,36.3316,97.7275,262.3832,6.9468e-05,8.18e-06,0.0,0 STARLINK-3648,1 51993U 22025AP  23122.80252156  .00000818  00000-0  69468-4 0  9991,2 51993  53.2184  36.3316 0001008  97.7275 262.3832 15.08840278 64885,6917.88,95.438,540.442,539.047,0.0
51993.0,STARLINK-3648,PAYLOAD,2023-05-03 11:09:29,15.08842139,0.0001049,53.2184,33.3576,72.1872,287.9234,8.6779e-05,1.094e-05,0.0,0 STARLINK-3648,1 51993U 22025AP  23123.46492039  .00001094  00000-0  86779-4 0  9991,2 51993  53.2184  33.3576 0001049  72.1872 287.9234 15.08842139 63870,6917.874,95.437,540.465,539.013,0.0
51993.0,STARLINK-3648,PAYLOAD,2023-05-03 22:17:11,15.08836744,0.0001032,53.2185,31.2766,83.918,276.193,1.3691e-05,-7e-07,0.0,0 STARLINK-3648,1 51993U 22025AP  23123.92860626 -.00000070  00000-0  13691-4 0  9990,2 51993  53.2185  31.2766 0001032  83.9180 276.1930 15.08836744 63949,6917.89,95.438,540.469,539.041,0.0
51993.0,STARLINK-3648,PAYLOAD,2023-05-04 01:27:57,15.08839749,9.61e-05,53.2182,30.6814,78.4634,281.6466,5.1104e-05,5.26e-06,0.0,0 STARLINK-3648,1 51993U 22025AP  23124.06108341  .00000526  00000-0  51104-4 0  9991,2 51993  53.2182  30.6814 0000961  78.4634 281.6466 15.08839749 65075,6917.881,95.438,540.411,539.081,0.0
51993.0,STARLINK-3648,PAYLOAD,2023-05-04 11:00:16,15.08839705,9.44e-05,53.218,28.8973,88.7624,271.3476,4.0844e-05,3.62e-06,0.0,0 STARLINK-3648,1 51993U 22025AP  23124.45852333  .00000362  00000-0  40844-4 0  9998,2 51993  53.2180  28.8973 0000944  88.7624 271.3476 15.08839705 64025,6917.881,95.438,540.399,539.093,0.0
51993.0,STARLINK-3648,PAYLOAD,2023-05-04 20:32:35,15.08842188,9.12e-05,53.2189,27.1132,78.1174,281.992,9.594e-06,-1.35e-06,0.0,0 STARLINK-3648,1 51993U 22025AP  23124.85596296 -.00000135  00000-0  95940-5 0  9992,2 51993  53.2189  27.1132 0000912  78.1174 281.9920 15.08842188 64087,6917.874,95.437,540.37,539.108,0.0
51993.0,STARLINK-3648,PAYLOAD,2023-05-05 02:54:07,15.08850741,0.0001057,53.218,25.9227,82.6224,277.4888,8.1709e-05,1.013e-05,0.0,0 STARLINK-3648,1 51993U 22025AP  23125.12091511  .00001013  00000-0  81709-4 0  9995,2 51993  53.2180  25.9227 0001057  82.6224 277.4888 15.08850741 65231,6917.848,95.437,540.444,538.981,0.0
51993.0,STARLINK-3648,PAYLOAD,2023-05-05 20:23:22,15.08836379,9.34e-05,53.2185,22.653,82.7363,277.3735,5.6701e-05,6.15e-06,0.0,0 STARLINK-3648,1 51993U 22025AP  23125.84956493  .00000615  00000-0  56701-4 0  9994,2 51993  53.2185  22.6530 0000934  82.7363 277.3735 15.08836379 64235,6917.891,95.438,540.403,539.11,0.0
51993.0,STARLINK-3648,PAYLOAD,2023-05-05 23:34:08,15.08844094,0.0001015,53.2182,22.0584,91.3671,268.7438,3.6332e-05,2.91e-06,0.0,0 STARLINK-3648,1 51993U 22025AP  23125.98204106  .00000291  00000-0  36332-4 0  9994,2 51993  53.2182  22.0584 0001015  91.3671 268.7438 15.08844094 65366,6917.868,95.437,540.435,539.031,0.0
51993.0,STARLINK-3648,PAYLOAD,2023-05-06 17:03:23,15.0883949,9.75e-05,53.2182,18.7887,92.382,267.7283,7.0221e-05,8.3e-06,0.0,0 STARLINK-3648,1 51993U 22025AP  23126.71068438  .00000830  00000-0  70221-4 0  9996,2 51993  53.2182  18.7887 0000975  92.3820 267.7283 15.08839490 65478,6917.882,95.438,540.421,539.072,0.0
51993.0,STARLINK-3648,PAYLOAD,2023-05-07 02:35:41,15.0885274,0.0001008,53.2178,17.0028,87.7103,272.4004,8.7709e-05,1.109e-05,0.0,0 STARLINK-3648,1 51993U 22025AP  23127.10811528  .00001109  00000-0  87709-4 0  9995,2 51993  53.2178  17.0028 0001008  87.7103 272.4004 15.08852740 65536,6917.841,95.437,540.404,539.009,0.0
51993.0,STARLINK-3648,PAYLOAD,2023-05-07 21:40:20,15.08835881,8.97e-05,53.2179,13.4342,108.616,251.4929,1.9815e-05,2.8e-07,0.0,0 STARLINK-3648,1 51993U 22025AP  23127.90301004  .00000028  00000-0  19815-4 0  9998,2 51993  53.2179  13.4342 0000897 108.6160 251.4929 15.08835881 64547,6917.893,95.438,540.379,539.137,0.0
51993.0,STARLINK-3648,PAYLOAD,2023-05-07 23:15:43,15.08834739,7.77e-05,53.2176,13.1383,98.3125,261.7955,3.5816e-05,2.82e-06,0.0,0 STARLINK-3648,1 51993U 22025AP  23127.96925086  .00000282  00000-0  35816-4 0  9997,2 51993  53.2176  13.1383 0000777  98.3125 261.7955 15.08834739 65667,6917.896,95.438,540.299,539.224,0.0
51993.0,STARLINK-3648,PAYLOAD,2023-05-08 19:55:43,15.08846213,7.31e-05,53.2176,9.2701,79.8579,280.2496,8.784e-05,1.111e-05,0.0,0 STARLINK-3648,1 51993U 22025AP  23128.83036450  .00001111  00000-0  87840-4 0  9998,2 51993  53.2176   9.2701 0000731  79.8579 280.2496 15.08846213 65794,6917.861,95.437,540.232,539.221,0.0
51993.0,STARLINK-3648,PAYLOAD,2023-05-08 21:31:06,15.08846818,7.21e-05,53.2164,8.9731,78.303,281.8044,0.00013257,1.823e-05,0.0,0 STARLINK-3648,1 51993U 22025AP  23128.89660420  .00001823  00000-0  13257-3 0  9994,2 51993  53.2164   8.9731 0000721  78.3030 281.8044 15.08846818 64690,6917.86,95.437,540.223,539.226,0.0
51993.0,STARLINK-3648,PAYLOAD,2023-05-10 00:32:40,15.08841206,5.55e-05,53.2182,3.9186,75.1233,284.9821,9.0582e-05,1.154e-05,0.0,0 STARLINK-3648,1 51993U 22025AP  23130.02268885  .00001154  00000-0  90582-4 0  9995,2 51993  53.2182   3.9186 0000555  75.1233 284.9821 15.08841206 64866,6917.877,95.437,540.126,539.358,0.0
51993.0,STARLINK-3648,PAYLOAD,2023-05-10 19:37:18,15.08840313,7.08e-05,53.218,0.3543,105.8937,254.2133,3.3001e-06,-2.35e-06,0.0,0 STARLINK-3648,1 51993U 22025AP  23130.81757302 -.00000235  00000-0  33001-5 0  9993,2 51993  53.2180   0.3543 0000708 105.8937 254.2133 15.08840313 64981,6917.879,95.438,540.234,539.255,0.0
51993.0,STARLINK-3648,PAYLOAD,2023-05-10 22:48:04,15.08842616,8.98e-05,53.2177,359.759,105.0422,255.067,9.7508e-05,1.265e-05,0.0,0 STARLINK-3648,1 51993U 22025AP  23130.95004907  .00001265  00000-0  97508-4 0  9998,2 51993  53.2177 359.7590 0000898 105.0422 255.0670 15.08842616 66111,6917.872,95.437,540.359,539.116,0.0
51993.0,STARLINK-3648,PAYLOAD,2023-05-11 21:03:28,15.08842194,6.84e-05,53.217,355.5946,116.3038,243.8024,2.4643e-05,1.05e-06,0.0,0 STARLINK-3648,1 51993U 22025AP  23131.87741161  .00000105  00000-0  24643-4 0  9992,2 51993  53.2170 355.5946 0000684 116.3038 243.8024 15.08842194 65145,6917.874,95.437,540.212,539.266,0.0
51993.0,STARLINK-3648,PAYLOAD,2023-05-11 22:38:51,15.08843799,6.27e-05,53.218,355.2954,76.962,283.1442,0.00011285,1.509e-05,0.0,0 STARLINK-3648,1 51993U 22025AP  23131.94364858  .00001509  00000-0  11285-3 0  9990,2 51993  53.2180 355.2954 0000627  76.9620 283.1442 15.08843799 65151,6917.869,95.437,540.168,539.3,0.0
51993.0,STARLINK-3648,PAYLOAD,2023-05-12 17:43:29,15.08829292,8.21e-05,53.2171,351.7276,129.0789,231.0276,0.00015867,2.238e-05,0.0,0 STARLINK-3648,1 51993U 22025AP  23132.73853640  .00002238  00000-0  15867-3 0  9990,2 51993  53.2171 351.7276 0000821 129.0789 231.0276 15.08829292 66386,6917.913,95.438,540.346,539.21,0.0
51993.0,STARLINK-3648,PAYLOAD,2023-05-13 00:05:01,15.0885063,6.25e-05,53.2176,350.5372,83.5573,276.549,7.767e-05,9.49e-06,0.0,0 STARLINK-3648,1 51993U 22025AP  23133.00348633  .00000949  00000-0  77670-4 0  9990,2 51993  53.2176 350.5372 0000625  83.5573 276.5490 15.08850630 66429,6917.848,95.437,540.145,539.281,0.0
51993.0,STARLINK-3648,PAYLOAD,2023-05-13 20:45:02,15.08851619,6.38e-05,53.2171,346.6709,100.2024,259.904,-1.9917e-06,-3.19e-06,0.0,0 STARLINK-3648,1 51993U 22025AP  23133.86460789 -.00000319  00000-0 -19917-5 0  9995,2 51993  53.2171 346.6709 0000638 100.2024 259.9040 15.08851619 66554,6917.845,95.437,540.151,539.269,0.0
